NORAD_CAT_ID,OBJECT_NAME,OBJECT_TYPE,EPOCH,MEAN_MOTION,ECCENTRICITY,INCLINATION,RA_OF_ASC_NODE,ARG_OF_PERICENTER,MEAN_ANOMALY,BSTAR,MEAN_MOTION_DOT,MEAN_MOTION_DDOT,TLE_LINE0,TLE_LINE1,TLE_LINE2,SEMIMAJOR_AXIS,PERIOD,APOGEE,PERIGEE,DECAYED
53821.0,STARLINK-4752,PAYLOAD,2024-02-13 00:10:46,15.08832716,0.0001375,53.2179,41.3207,100.7644,259.3503,0.00015334,2.153e-05,0.0,0 STARLINK-4752,1 53821U 22114D   24044.00748573  .00002153  00000-0  15334-3 0  9997,2 53821  53.2179  41.3207 0001375 100.7644 259.3503 15.08832716 78983,6917.903,95.438,540.719,538.816,0.0
53821.0,STARLINK-4752,PAYLOAD,2024-02-13 06:32:18,15.08840834,0.0001635,53.2189,40.1286,107.6633,252.4537,0.0002337,3.433e-05,0.0,0 STARLINK-4752,1 53821U 22114D   24044.27243811  .00003433  00000-0  23370-3 0  9992,2 53821  53.2189  40.1286 0001635 107.6633 252.4537 15.08840834 79028,6917.878,95.438,540.874,538.612,0.0
53821.0,STARLINK-4752,PAYLOAD,2024-02-13 16:04:38,15.08837925,0.0001735,53.2182,38.3472,81.3397,278.7792,0.00016437,2.329e-05,0.0,0 STARLINK-4752,1 53821U 22114D   24044.66988486  .00002329  00000-0  16437-3 0  9998,2 53821  53.2182  38.3472 0001735  81.3397 278.7792 15.08837925 79080,6917.887,95.438,540.952,538.551,0.0
53821.0,STARLINK-4752,PAYLOAD,2024-02-14 04:47:43,15.08831008,0.0001762,53.2197,35.9733,101.5567,258.5623,9.9664e-05,1.298e-05,0.0,0 STARLINK-4752,1 53821U 22114D   24045.19981282  .00001298  00000-0  99664-4 0  9992,2 53821  53.2197  35.9733 0001762 101.5567 258.5623 15.08831008 79167,6917.908,95.438,540.992,538.554,0.0
53821.0,STARLINK-4752,PAYLOAD,2024-02-14 06:23:07,15.08830237,0.0001687,53.2195,35.6751,95.4911,264.6274,8.6162e-05,1.083e-05,0.0,0 STARLINK-4752,1 53821U 22114D   24045.26605424  .00001083  00000-0  86162-4 0  9992,2 53821  53.2195  35.6751 0001687  95.4911 264.6274 15.08830237 79716,6917.91,95.438,540.942,538.608,0.0
53821.0,STARLINK-4752,PAYLOAD,2024-02-14 15:55:26,15.0882141,0.0001799,53.2193,33.891,97.1635,262.9561,0.00018166,2.603e-05,0.0,0 STARLINK-4752,1 53821U 22114D   24045.66349878  .00002603  00000-0  18166-3 0  9991,2 53821  53.2193  33.8910 0001799  97.1635 262.9561 15.08821410 79237,6917.937,95.439,541.047,538.558,0.0
53821.0,STARLINK-4752,PAYLOAD,2024-02-15 03:03:07,15.08847032,0.0001767,53.2188,31.8088,98.4701,261.6492,-4.4863e-05,-1.002e-05,0.0,0 STARLINK-4752,1 53821U 22114D   24046.12716794 -.00001002  00000-0 -44863-4 0  9996,2 53821  53.2188  31.8088 0001767  98.4701 261.6492 15.08847032 79303,6917.859,95.437,540.946,538.502,0.0
53821.0,STARLINK-4752,PAYLOAD,2024-02-15 07:49:16,15.08846376,0.0001763,53.2191,30.9158,92.3847,267.7347,-4.8348e-05,-1.058e-05,0.0,0 STARLINK-4752,1 53821U 22114D   24046.32588795 -.00001058  00000-0 -48348-4 0  9999,2 53821  53.2191  30.9158 0001763  92.3847 267.7347 15.08846376 79873,6917.861,95.437,540.946,538.506,0.0
53821.0,STARLINK-4752,PAYLOAD,2024-02-15 15:46:12,15.08841045,0.0001737,53.2189,29.4288,91.4963,268.6228,-7.263e-05,-1.444e-05,0.0,0 STARLINK-4752,1 53821U 22114D   24046.65709132 -.00001444  00000-0 -72630-4 0  9995,2 53821  53.2189  29.4288 0001737  91.4963 268.6228 15.08841045 79389,6917.877,95.437,540.944,538.541,0.0
53821.0,STARLINK-4752,PAYLOAD,2024-02-15 22:07:45,15.08834572,0.0001625,53.2183,28.238,87.7797,272.3381,1.0294e-05,-1.24e-06,0.0,0 STARLINK-4752,1 53821U 22114D   24046.92205195 -.00000124  00000-0  10294-4 0  9996,2 53821  53.2183  28.2380 0001625  87.7797 272.3381 15.08834572 79965,6917.897,95.438,540.886,538.638,0.0
53821.0,STARLINK-4752,PAYLOAD,2024-02-16 07:40:04,15.08836201,0.0001617,53.2185,26.4536,88.0738,272.0439,1.5949e-06,-2.63e-06,0.0,0 STARLINK-4752,1 53821U 22114D   24047.31949243 -.00000263  00000-0  15949-5 0  9996,2 53821  53.2185  26.4536 0001617  88.0738 272.0439 15.08836201 80021,6917.892,95.438,540.876,538.638,0.0
53821.0,STARLINK-4752,PAYLOAD,2024-02-17 04:20:04,15.08841706,0.0001628,53.2188,22.5879,90.9623,269.1555,2.5655e-05,1.2e-06,0.0,0 STARLINK-4752,1 53821U 22114D   24048.18060825  .00000120  00000-0  25655-4 0  9997,2 53821  53.2188  22.5879 0001628  90.9623 269.1555 15.08841706 79613,6917.875,95.437,540.866,538.614,0.0
53821.0,STARLINK-4752,PAYLOAD,2024-02-17 05:55:27,15.08841842,0.0001618,53.2187,22.2906,90.2356,269.8821,2.7319e-05,1.47e-06,0.0,0 STARLINK-4752,1 53821U 22114D   24048.24684809  .00000147  00000-0  27319-4 0  9996,2 53821  53.2187  22.2906 0001618  90.2356 269.8821 15.08841842 80161,6917.875,95.437,540.859,538.62,0.0
53821.0,STARLINK-4752,PAYLOAD,2024-02-17 21:49:19,15.08834609,0.0001542,53.2182,19.3162,89.6295,270.4874,2.0672e-05,4.1e-07,0.0,0 STARLINK-4752,1 53821U 22114D   24048.90925275  .00000041  00000-0  20672-4 0  9992,2 53821  53.2182  19.3162 0001542  89.6295 270.4874 15.08834609 80267,6917.897,95.438,540.829,538.695,0.0
53821.0,STARLINK-4752,PAYLOAD,2024-02-18 04:10:51,15.08836197,0.0001545,53.2182,18.1264,90.8107,269.3063,1.4969e-05,-5e-07,0.0,0 STARLINK-4752,1 53821U 22114D   24049.17421248 -.00000050  00000-0  14969-4 0  9996,2 53821  53.2182  18.1264 0001545  90.8107 269.3063 15.08836197 79760,6917.892,95.438,540.826,538.688,0.0
53821.0,STARLINK-4752,PAYLOAD,2024-02-18 15:18:31,15.08864141,0.0001558,53.2186,16.0447,93.9798,266.1372,0.00019288,2.785e-05,0.0,0 STARLINK-4752,1 53821U 22114D   24049.63786403  .00002785  00000-0  19288-3 0  9998,2 53821  53.2186  16.0447 0001558  93.9798 266.1372 15.08864141 79834,6917.807,95.436,540.749,538.594,0.0
53821.0,STARLINK-4752,PAYLOAD,2024-02-18 21:40:03,15.08869154,0.0001381,53.2181,14.8561,84.5925,275.5224,0.0002027,2.942e-05,0.0,0 STARLINK-4752,1 53821U 22114D   24049.90281561  .00002942  00000-0  20270-3 0  9991,2 53821  53.2181  14.8561 0001381  84.5925 275.5224 15.08869154 80419,6917.791,95.436,540.612,538.701,0.0
53821.0,STARLINK-4752,PAYLOAD,2024-02-19 04:01:37,15.08840242,0.0001533,53.2182,13.6663,89.1003,271.0165,-3.8627e-05,-9.03e-06,0.0,0 STARLINK-4752,1 53821U 22114D   24050.16780006 -.00000903  00000-0 -38627-4 0  9992,2 53821  53.2182  13.6663 0001533  89.1003 271.0165 15.08840242 79912,6917.88,95.438,540.805,538.684,0.0
53821.0,STARLINK-4752,PAYLOAD,2024-02-20 03:52:25,15.08827796,0.0001591,53.2185,9.2071,88.3719,271.7455,-8.759e-05,-1.681e-05,0.0,0 STARLINK-4752,1 53821U 22114D   24051.16141194 -.00001681  00000-0 -87590-4 0  9999,2 53821  53.2185   9.2071 0001591  88.3719 271.7455 15.08827796 80064,6917.918,95.438,540.883,538.682,0.0
53821.0,STARLINK-4752,PAYLOAD,2024-02-20 21:21:39,15.08855303,9.15e-05,53.2184,5.9363,79.5263,280.5832,-0.00038497,-6.412e-05,0.0,0 STARLINK-4752,1 53821U 22114D   24051.89004283 -.00006412  00000-0 -38497-3 0  9994,2 53821  53.2184   5.9363 0000915  79.5263 280.5832 15.08855303 80719,6917.834,95.437,540.332,539.066,0.0
53821.0,STARLINK-4752,PAYLOAD,2024-02-21 02:07:48,15.08874901,0.0001569,53.2188,5.0447,80.6166,279.5004,-0.00058025,-9.52e-05,0.0,0 STARLINK-4752,1 53821U 22114D   24052.08875673 -.00009520  00000-0 -58025-3 0  9997,2 53821  53.2188   5.0447 0001569  80.6166 279.5004 15.08874901 80206,6917.774,95.435,540.724,538.553,0.0
53821.0,STARLINK-4752,PAYLOAD,2024-02-21 13:15:31,15.08824817,0.0001535,53.219,2.962,90.4613,269.6555,4.7219e-05,4.63e-06,0.0,0 STARLINK-4752,1 53821U 22114D   24052.55245152  .00000463  00000-0  47219-4 0  9991,2 53821  53.2190   2.9620 0001535  90.4613 269.6555 15.08824817 80816,6917.927,95.439,540.854,538.73,0.0
53821.0,STARLINK-4752,PAYLOAD,2024-02-22 13:06:19,15.08828613,0.0001533,53.2195,358.5027,91.487,268.6298,5.0629e-05,5.18e-06,0.0,0 STARLINK-4752,1 53821U 22114D   24053.54605772  .00000518  00000-0  50629-4 0  9999,2 53821  53.2195 358.5027 0001533  91.4870 268.6298 15.08828613 80963,6917.915,95.438,540.841,538.72,0.0
53821.0,STARLINK-4752,PAYLOAD,2024-02-23 03:24:47,15.08835091,0.0001486,53.2191,355.8258,89.4315,270.6848,2.9093e-05,1.75e-06,0.0,0 STARLINK-4752,1 53821U 22114D   24054.14221736  .00000175  00000-0  29093-4 0  9990,2 53821  53.2191 355.8258 0001486  89.4315 270.6848 15.08835091 80516,6917.895,95.438,540.788,538.732,0.0
53821.0,STARLINK-4752,PAYLOAD,2024-02-23 12:57:06,15.08835009,0.0001518,53.2193,354.042,90.3434,269.7732,3.8193e-05,3.2e-06,0.0,0 STARLINK-4752,1 53821U 22114D   24054.53965821  .00000320  00000-0  38193-4 0  9996,2 53821  53.2193 354.0420 0001518  90.3434 269.7732 15.08835009 81116,6917.896,95.438,540.811,538.711,0.0
53821.0,STARLINK-4752,PAYLOAD,2024-02-24 04:50:57,15.08836753,0.0001507,53.219,351.0681,89.2391,270.8774,3.3872e-05,2.51e-06,0.0,0 STARLINK-4752,1 53821U 22114D   24055.20205921  .00000251  00000-0  33872-4 0  9991,2 53821  53.2190 351.0681 0001507  89.2391 270.8774 15.08836753 80672,6917.89,95.438,540.798,538.713,0.0
53821.0,STARLINK-4752,PAYLOAD,2024-02-24 12:47:53,15.08836275,0.0001512,53.219,349.5813,88.1083,272.0082,2.4922e-05,1.09e-06,0.0,0 STARLINK-4752,1 53821U 22114D   24055.53326039  .00000109  00000-0  24922-4 0  9999,2 53821  53.2190 349.5813 0001512  88.1083 272.0082 15.08836275 81264,6917.892,95.438,540.803,538.711,0.0
53821.0,STARLINK-4752,PAYLOAD,2024-02-25 12:38:40,15.08839639,0.0001595,53.2195,345.1204,88.1963,271.9212,6.7661e-06,-1.8e-06,0.0,0 STARLINK-4752,1 53821U 22114D   24056.52685956 -.00000180  00000-0  67661-5 0  9993,2 53821  53.2195 345.1204 0001595  88.1963 271.9212 15.08839639 80879,6917.881,95.438,540.85,538.643,0.0
53821.0,STARLINK-4752,PAYLOAD,2024-02-26 04:32:31,15.08842184,0.0001462,53.2186,342.1463,90.1544,269.9616,2.5444e-05,1.17e-06,0.0,0 STARLINK-4752,1 53821U 22114D   24057.18925612  .00000117  00000-0  25444-4 0  9993,2 53821  53.2186 342.1463 0001462  90.1544 269.9616 15.08842184 81510,6917.874,95.437,540.75,538.727,0.0
53821.0,STARLINK-4752,PAYLOAD,2024-02-26 22:01:46,15.08838715,0.0001452,53.2185,338.8753,90.6336,269.4822,3.3349e-06,-2.35e-06,0.0,0 STARLINK-4752,1 53821U 22114D   24057.91789848 -.00000235  00000-0  33349-5 0  9999,2 53821  53.2185 338.8753 0001452  90.6336 269.4822 15.08838715 81627,6917.884,95.438,540.754,538.745,0.0
